start=new Date('2021-10-23T00:00:00.000Z').valueOf();
sats=[{"REV_AT_EPOCH":"8409","LAUNCH_DATE":"2020-04-22","OBJECT_TYPE":"PAYLOAD","PERIOD":"95.593","INCLINATION":"53.0548","ARG_OF_PERICENTER":"101.6016","TLE_LINE1":"1 45538U 20025H   21295.73343643  .00000797  00000-0  72416-4 0  9993","TLE_LINE2":"2 45538  53.0548  84.6118 0001327 101.6016 258.5121 15.06389076 84098","REF_FRAME":"TEME","MEAN_ANOMALY":"258.5121","RCS_SIZE":"LARGE","GP_ID":"187932509","NORAD_CAT_ID":"45538","COUNTRY_CODE":"US","ECCENTRICITY":"0.00013270","TIME_SYSTEM":"UTC","MEAN_ELEMENT_THEORY":"SGP4","ELEMENT_SET_NO":"999","EPHEMERIS_TYPE":"0","OBJECT_ID":"2020-025H","FILE":"3179071","MEAN_MOTION":"15.06389076","BSTAR":"0.00007241600000","RA_OF_ASC_NODE":"84.6118","EPOCH":"2021-10-22T17:36:08.907552","MEAN_MOTION_DOT":"0.00000797","APOAPSIS":"548.166","OBJECT_NAME":"STARLINK-1362","CLASSIFICATION_TYPE":"U","DECAY_DATE":null,"PERIAPSIS":"546.328","CENTER_NAME":"EARTH","SITE":"AFETR","MEAN_MOTION_DDOT":"0.0000000000000","SEMIMAJOR_AXIS":"6925.382"},{"MEAN_MOTION_DOT":"0.00003496","EPOCH":"2021-10-22T13:09:45.203904","OBJECT_NAME":"STARLINK-1367","APOAPSIS":"357.820","RA_OF_ASC_NODE":"2.0006","EPHEMERIS_TYPE":"0","OBJECT_ID":"2020-025J","MEAN_MOTION":"15.71445040","FILE":"3178676","BSTAR":"0.00003148900000","MEAN_MOTION_DDOT":"0.0000000000000","SEMIMAJOR_AXIS":"6732.903","CENTER_NAME":"EARTH","SITE":"AFETR","CLASSIFICATION_TYPE":"U","DECAY_DATE":null,"PERIAPSIS":"351.717","TLE_LINE1":"1 45539U 20025J   21295.54843986  .00003496  00000-0  31489-4 0  9992","TLE_LINE2":"2 45539  53.0576   2.0006 0004532  14.8179 345.2971 15.71445040 85214","ARG_OF_PERICENTER":"14.8179","LAUNCH_DATE":"2020-04-22","OBJECT_TYPE":"PAYLOAD","PERIOD":"91.635","INCLINATION":"53.0576","REV_AT_EPOCH":"8521","MEAN_ELEMENT_THEORY":"SGP4","TIME_SYSTEM":"UTC","ELEMENT_SET_NO":"999","ECCENTRICITY":"0.00045320","REF_FRAME":"TEME","MEAN_ANOMALY":"345.2971","GP_ID":"187900411","RCS_SIZE":"LARGE","NORAD_CAT_ID":"45539","COUNTRY_CODE":"US"},{"MEAN_MOTION_DOT":"-0.00001002","EPOCH":"2021-10-22T17:04:17.833728","APOAPSIS":"548.323","OBJECT_NAME":"STARLINK-1368","RA_OF_ASC_NODE":"84.7210","EPHEMERIS_TYPE":"0","FILE":"3179071","MEAN_MOTION":"15.06398422","BSTAR":"-0.00004839800000","OBJECT_ID":"2020-025K","SEMIMAJOR_AXIS":"6925.353","MEAN_MOTION_DDOT":"0.0000000000000","SITE":"AFETR","CENTER_NAME":"EARTH","PERIAPSIS":"546.114","DECAY_DATE":null,"CLASSIFICATION_TYPE":"U","TLE_LINE1":"1 45540U 20025K   21295.71131752 -.00001002  00000-0 -48398-4 0  9994","TLE_LINE2":"2 45540  53.0556  84.7210 0001595  88.0502 272.0670 15.06398422 84083","ARG_OF_PERICENTER":"88.0502","OBJECT_TYPE":"PAYLOAD","LAUNCH_DATE":"2020-04-22","INCLINATION":"53.0556","PERIOD":"95.592","REV_AT_EPOCH":"8408","ELEMENT_SET_NO":"999","TIME_SYSTEM":"UTC","MEAN_ELEMENT_THEORY":"SGP4","ECCENTRICITY":"0.00015950","MEAN_ANOMALY":"272.0670","REF_FRAME":"TEME","COUNTRY_CODE":"US","GP_ID":"187931008","RCS_SIZE":"LARGE","NORAD_CAT_ID":"45540"},{"ARG_OF_PERICENTER":"86.9091","TLE_LINE2":"2 45541  53.0539  84.6991 0001406  86.9091 273.2058 15.06388842 84089","TLE_LINE1":"1 45541U 20025L   21295.71499994 -.00000539  00000-0 -17329-4 0  9994","REV_AT_EPOCH":"8408","PERIOD":"95.593","INCLINATION":"53.0539","LAUNCH_DATE":"2020-04-22","OBJECT_TYPE":"PAYLOAD","MEAN_ELEMENT_THEORY":"SGP4","ELEMENT_SET_NO":"999","TIME_SYSTEM":"UTC","GP_ID":"187931258","RCS_SIZE":"LARGE","NORAD_CAT_ID":"45541","COUNTRY_CODE":"US","REF_FRAME":"TEME","MEAN_ANOMALY":"273.2058","ECCENTRICITY":"0.00014060","OBJECT_NAME":"STARLINK-1369","APOAPSIS":"548.221","EPOCH":"2021-10-22T17:09:35.994816","MEAN_MOTION_DOT":"-0.00000539","OBJECT_ID":"2020-025L","FILE":"3179071","MEAN_MOTION":"15.06388842","BSTAR":"-0.00001732900000","EPHEMERIS_TYPE":"0","RA_OF_ASC_NODE":"84.6991","SEMIMAJOR_AXIS":"6925.383","MEAN_MOTION_DDOT":"0.0000000000000","DECAY_DATE":null,"CLASSIFICATION_TYPE":"U","PERIAPSIS":"546.274","CENTER_NAME":"EARTH","SITE":"AFETR"},{"MEAN_ELEMENT_THEORY":"SGP4","TIME_SYSTEM":"UTC","ELEMENT_SET_NO":"999","ECCENTRICITY":"0.00014170","COUNTRY_CODE":"US","GP_ID":"187932010","RCS_SIZE":"LARGE","NORAD_CAT_ID":"45542","MEAN_ANOMALY":"258.5655","REF_FRAME":"TEME","TLE_LINE2":"2 45542  53.0546  84.8465 0001417 101.5493 258.5655 15.06392771 84083","TLE_LINE1":"1 45542U 20025M   21295.68182485 -.00001077  00000-0 -53425-4 0  9990","ARG_OF_PERICENTER":"101.5493","INCLINATION":"53.0546","PERIOD":"95.593","OBJECT_TYPE":"PAYLOAD","LAUNCH_DATE":"2020-04-22","REV_AT_EPOCH":"8408","MEAN_MOTION_DDOT":"0.0000000000000","SEMIMAJOR_AXIS":"6925.371","SITE":"AFETR","CENTER_NAME":"EARTH","PERIAPSIS":"546.254","CLASSIFICATION_TYPE":"U","DECAY_DATE":null,"OBJECT_NAME":"STARLINK-1371","APOAPSIS":"548.217","EPOCH":"2021-10-22T16:21:49.667040","MEAN_MOTION_DOT":"-0.00001077","RA_OF_ASC_NODE":"84.8465","FILE":"3179071","MEAN_MOTION":"15.06392771","BSTAR":"-0.00005342500000","OBJECT_ID":"2020-025M","EPHEMERIS_TYPE":"0"},{"MEAN_MOTION_DDOT":"0.0000000000000","SEMIMAJOR_AXIS":"6925.339","PERIAPSIS":"546.220","CLASSIFICATION_TYPE":"U","DECAY_DATE":null,"SITE":"AFETR","CENTER_NAME":"EARTH","MEAN_MOTION_DOT":"-0.00000619","EPOCH":"2021-10-22T17:14:53.262528","APOAPSIS":"548.188","OBJECT_NAME":"STARLINK-1372","EPHEMERIS_TYPE":"0","BSTAR":"-0.00002267300000","FILE":"3179071","MEAN_MOTION":"15.06403062","OBJECT_ID":"2020-025N","RA_OF_ASC_NODE":"84.6783","TIME_SYSTEM":"UTC","ELEMENT_SET_NO":"999","MEAN_ELEMENT_THEORY":"SGP4","MEAN_ANOMALY":"270.3795","REF_FRAME":"TEME","COUNTRY_CODE":"US","GP_ID":"187932760","NORAD_CAT_ID":"45543","RCS_SIZE":"LARGE","ECCENTRICITY":"0.00014210","ARG_OF_PERICENTER":"89.7356","TLE_LINE1":"1 45543U 20025N   21295.71867202 -.00000619  00000-0 -22673-4 0  9994","TLE_LINE2":"2 45543  53.0535  84.6783 0001421  89.7356 270.3795 15.06403062 83186","REV_AT_EPOCH":"8318","OBJECT_TYPE":"PAYLOAD","LAUNCH_DATE":"2020-04-22","INCLINATION":"53.0535","PERIOD":"95.592"},{"TLE_LINE1":"1 45544U 20025P   21295.73711737 -.00000993  00000-0 -47816-4 0  9999","TLE_LINE2":"2 45544  53.0544  84.6043 0001428  91.0505 269.0648 15.06392011 84099","ARG_OF_PERICENTER":"91.0505","LAUNCH_DATE":"2020-04-22","OBJECT_TYPE":"PAYLOAD","PERIOD":"95.593","INCLINATION":"53.0544","REV_AT_EPOCH":"8409","ELEMENT_SET_NO":"999","MEAN_ELEMENT_THEORY":"SGP4","TIME_SYSTEM":"UTC","ECCENTRICITY":"0.00014280","REF_FRAME":"TEME","MEAN_ANOMALY":"269.0648","GP_ID":"187931508","RCS_SIZE":"LARGE","NORAD_CAT_ID":"45544","COUNTRY_CODE":"US","MEAN_MOTION_DOT":"-0.00000993","EPOCH":"2021-10-22T17:41:26.940768","OBJECT_NAME":"STARLINK-1373","APOAPSIS":"548.227","RA_OF_ASC_NODE":"84.6043","EPHEMERIS_TYPE":"0","OBJECT_ID":"2020-025P","FILE":"3179071","MEAN_MOTION":"15.06392011","BSTAR":"-0.00004781600000","MEAN_MOTION_DDOT":"0.0000000000000","SEMIMAJOR_AXIS":"6925.373","CENTER_NAME":"EARTH","SITE":"AFETR","DECAY_DATE":null,"CLASSIFICATION_TYPE":"U","PERIAPSIS":"546.249"},{"ELEMENT_SET_NO":"999","TIME_SYSTEM":"UTC","MEAN_ELEMENT_THEORY":"SGP4","ECCENTRICITY":"0.00014290","GP_ID":"187931758","NORAD_CAT_ID":"45545","RCS_SIZE":"LARGE","COUNTRY_CODE":"US","REF_FRAME":"TEME","MEAN_ANOMALY":"275.5553","TLE_LINE2":"2 45545  53.0556  84.8227 0001429  84.5598 275.5553 15.06399261 84067","TLE_LINE1":"1 45545U 20025Q   21295.68921738  .00001099  00000-0  92681-4 0  9994","ARG_OF_PERICENTER":"84.5598","PERIOD":"95.592","INCLINATION":"53.0556","LAUNCH_DATE":"2020-04-22","OBJECT_TYPE":"PAYLOAD","REV_AT_EPOCH":"8406","SEMIMAJOR_AXIS":"6925.351","MEAN_MOTION_DDOT":"0.0000000000000","SITE":"AFETR","CENTER_NAME":"EARTH","DECAY_DATE":null,"CLASSIFICATION_TYPE":"U","PERIAPSIS":"546.226","APOAPSIS":"548.205","OBJECT_NAME":"STARLINK-1374","MEAN_MOTION_DOT":"0.00001099","EPOCH":"2021-10-22T16:32:28.381632","RA_OF_ASC_NODE":"84.8227","OBJECT_ID":"2020-025Q","FILE":"3179071","BSTAR":"0.00009268100000","MEAN_MOTION":"15.06399261","EPHEMERIS_TYPE":"0"},{"PERIAPSIS":"546.105","DECAY_DATE":null,"CLASSIFICATION_TYPE":"U","CENTER_NAME":"EARTH","SITE":"AFETR","MEAN_MOTION_DDOT":"0.0000000000000","SEMIMAJOR_AXIS":"6925.364","EPHEMERIS_TYPE":"0","BSTAR":"-0.00005858100000","FILE":"3179071","MEAN_MOTION":"15.06394990","OBJECT_ID":"2020-025R","RA_OF_ASC_NODE":"84.7639","MEAN_MOTION_DOT":"-0.00001154","EPOCH":"2021-10-22T16:48:22.074336","OBJECT_NAME":"STARLINK-1375","APOAPSIS":"548.353","MEAN_ANOMALY":"277.8564","REF_FRAME":"TEME","COUNTRY_CODE":"US","RCS_SIZE":"LARGE","GP_ID":"187932510","NORAD_CAT_ID":"45546","ECCENTRICITY":"0.00016230","ELEMENT_SET_NO":"999","TIME_SYSTEM":"UTC","MEAN_ELEMENT_THEORY":"SGP4","REV_AT_EPOCH":"8408","LAUNCH_DATE":"2020-04-22","OBJECT_TYPE":"PAYLOAD","INCLINATION":"53.0537","PERIOD":"95.592","ARG_OF_PERICENTER":"82.2610","TLE_LINE1":"1 45546U 20025R   21295.70025549 -.00001154  00000-0 -58581-4 0  9998","TLE_LINE2":"2 45546  53.0537  84.7639 0001623  82.2610 277.8564 15.06394990 84082"},{"DECAY_DATE":null,"CLASSIFICATION_TYPE":"U","PERIAPSIS":"546.438","CENTER_NAME":"EARTH","SITE":"AFETR","SEMIMAJOR_AXIS":"6925.374","MEAN_MOTION_DDOT":"0.0000000000000","EPHEMERIS_TYPE":"0","OBJECT_ID":"2020-025S","FILE":"3179071","MEAN_MOTION":"15.06391739","BSTAR":"-0.00004104500000","RA_OF_ASC_NODE":"84.7786","MEAN_MOTION_DOT":"-0.00000892","EPOCH":"2021-10-22T16:43:04.143936","APOAPSIS":"548.039","OBJECT_NAME":"STARLINK-1377","REF_FRAME":"TEME","MEAN_ANOMALY":"269.6368","GP_ID":"187932261","RCS_SIZE":"LARGE","NORAD_CAT_ID":"45547","COUNTRY_CODE":"US","ECCENTRICITY":"0.00011560","TIME_SYSTEM":"UTC","MEAN_ELEMENT_THEORY":"SGP4","ELEMENT_SET_NO":"999","REV_AT_EPOCH":"8409","LAUNCH_DATE":"2020-04-22","OBJECT_TYPE":"PAYLOAD","PERIOD":"95.593","INCLINATION":"53.0536","ARG_OF_PERICENTER":"90.4753","TLE_LINE1":"1 45547U 20025S   21295.69657574 -.00000892  00000-0 -41045-4 0  9991","TLE_LINE2":"2 45547  53.0536  84.7786 0001156  90.4753 269.6368 15.06391739 84095"}];
